COSMOS 1892             
1 18421U 87088A   25305.66331501  .00222671  17008-4  67225-3 0  9992
2 18421  82.4689  89.9644 0005252 310.0016  50.0796 15.92078936 84740
SL-14 R/B               
1 18749U 88001B   25305.48444247  .00000673  00000+0  75282-4 0  9991
2 18749  82.5110 315.9597 0016747 305.4017  54.5634 14.85356561 22995
COSMOS 1933             
1 18958U 88020A   25305.45741484  .00004914  00000+0  24989-3 0  9993
2 18958  82.5172  17.6490 0003064 289.4539  70.6363 15.16628294 30785
SL-3 R/B                
1 19046U 88032B   25305.60847276  .00006673  00000+0  32779-3 0  9998
2 19046  97.5040 284.6418 0025823 324.0979  35.8519 15.18099795 32666
SL-16 R/B               
1 19120U 88039B   25305.52553109 -.00000080  00000+0 -14853-4 0  9990
2 19120  71.0154 339.5452 0021842 182.9380 177.1621 14.19586127940194
COSMOS 1953             
1 19210U 88050A   25305.40950635  .00006290  00000+0  24108-3 0  9995
2 19210  82.5060 287.0371 0010872 206.1592 153.9099 15.26271165 18200
SL-8 R/B                
1 19257U 88053B   25305.45653381  .00000358  00000+0  12463-3 0  9992
2 19257  74.0485 348.8088 0020536 204.8297 255.9130 14.38821530958159
COSMOS 1975             
1 19573U 88093A   25305.33884965  .00011642  00000+0  45804-3 0  9991
2 19573  82.5198 246.2401 0009227 263.8225  96.1962 15.25481341999810
SL-14 R/B               
1 19574U 88093B   25305.61111359  .00000588  00000+0  65072-4 0  9990
2 19574  82.5311 162.2629 0022279 100.9967 276.8697 14.85486909982020
SL-16 R/B               
1 19650U 88102B   25305.63086381  .00000100  00000+0  74650-4 0  9996
2 19650  71.0005  60.9366 0015351 213.8945 146.1199 14.16130480908762
INTERCOSMOS 24          
1 20261U 89080A   25305.42860153  .00000669  00000+0  19759-3 0  9994
2 20261  82.6094 187.8147 1187657 230.3744 118.6548 12.59349892650653
SL-14 R/B               
1 20262U 89080C   25305.61804066  .00000321  00000+0  87253-4 0  9997
2 20262  82.5912 255.4103 1231511 117.5137 255.6503 12.50370885644144
