CCSDS_OMM_VERS = 2.0
CREATION_DATE  = 
ORIGINATOR     = 

OBJECT_NAME    = COSMOS 1892
OBJECT_ID      = 1987-088A
CENTER_NAME    = EARTH
REF_FRAME      = TEME
TIME_SYSTEM    = UTC
MEAN_ELEMENT_THEORY = SGP/SGP4

EPOCH          = 2025-11-01T15:55:10.416864
MEAN_MOTION    = 15.92078936
ECCENTRICITY   = .00052526
INCLINATION    = 82.4689
RA_OF_ASC_NODE = 89.9644
ARG_OF_PERICENTER = 310.0016
MEAN_ANOMALY   = 50.0796

EPHEMERIS_TYPE = 0
CLASSIFICATION_TYPE = U
NORAD_CAT_ID   = 18421
ELEMENT_SET_NO = 999
REV_AT_EPOCH   = 8474
BSTAR          = .67224637E-3
MEAN_MOTION_DOT = .222671E-2
MEAN_MOTION_DDOT = .17008191E-4

CCSDS_OMM_VERS = 2.0
CREATION_DATE  = 
ORIGINATOR     = 

OBJECT_NAME    = SL-14 R/B
OBJECT_ID      = 1988-001B
CENTER_NAME    = EARTH
REF_FRAME      = TEME
TIME_SYSTEM    = UTC
MEAN_ELEMENT_THEORY = SGP/SGP4

EPOCH          = 2025-11-01T11:37:35.829408
MEAN_MOTION    = 14.85356561
ECCENTRICITY   = .00167479
INCLINATION    = 82.5110
RA_OF_ASC_NODE = 315.9597
ARG_OF_PERICENTER = 305.4017
MEAN_ANOMALY   = 54.5634

EPHEMERIS_TYPE = 0
CLASSIFICATION_TYPE = U
NORAD_CAT_ID   = 18749
ELEMENT_SET_NO = 999
REV_AT_EPOCH   = 2299
BSTAR          = .75282469E-4
MEAN_MOTION_DOT = .673E-5
MEAN_MOTION_DDOT = 0

CCSDS_OMM_VERS = 2.0
CREATION_DATE  = 
ORIGINATOR     = 

OBJECT_NAME    = COSMOS 1933
OBJECT_ID      = 1988-020A
CENTER_NAME    = EARTH
REF_FRAME      = TEME
TIME_SYSTEM    = UTC
MEAN_ELEMENT_THEORY = SGP/SGP4

EPOCH          = 2025-11-01T10:58:40.642176
MEAN_MOTION    = 15.16628294
ECCENTRICITY   = .00030642
INCLINATION    = 82.5172
RA_OF_ASC_NODE = 17.6490
ARG_OF_PERICENTER = 289.4539
MEAN_ANOMALY   = 70.6363

EPHEMERIS_TYPE = 0
CLASSIFICATION_TYPE = U
NORAD_CAT_ID   = 18958
ELEMENT_SET_NO = 999
REV_AT_EPOCH   = 3078
BSTAR          = .24989092E-3
MEAN_MOTION_DOT = .4914E-4
MEAN_MOTION_DDOT = 0

CCSDS_OMM_VERS = 2.0
CREATION_DATE  = 
ORIGINATOR     = 

OBJECT_NAME    = SL-3 R/B
OBJECT_ID      = 1988-032B
CENTER_NAME    = EARTH
REF_FRAME      = TEME
TIME_SYSTEM    = UTC
MEAN_ELEMENT_THEORY = SGP/SGP4

EPOCH          = 2025-11-01T14:36:12.046464
MEAN_MOTION    = 15.18099795
ECCENTRICITY   = .00258234
INCLINATION    = 97.5040
RA_OF_ASC_NODE = 284.6418
ARG_OF_PERICENTER = 324.0979
MEAN_ANOMALY   = 35.8519

EPHEMERIS_TYPE = 0
CLASSIFICATION_TYPE = U
NORAD_CAT_ID   = 19046
ELEMENT_SET_NO = 999
REV_AT_EPOCH   = 3266
BSTAR          = .32779079E-3
MEAN_MOTION_DOT = .6673E-4
MEAN_MOTION_DDOT = 0

CCSDS_OMM_VERS = 2.0
CREATION_DATE  = 
ORIGINATOR     = 

OBJECT_NAME    = SL-16 R/B
OBJECT_ID      = 1988-039B
CENTER_NAME    = EARTH
REF_FRAME      = TEME
TIME_SYSTEM    = UTC
MEAN_ELEMENT_THEORY = SGP/SGP4

EPOCH          = 2025-11-01T12:36:45.886176
MEAN_MOTION    = 14.19586127
ECCENTRICITY   = .00218425
INCLINATION    = 71.0154
RA_OF_ASC_NODE = 339.5452
ARG_OF_PERICENTER = 182.9380
MEAN_ANOMALY   = 177.1621

EPHEMERIS_TYPE = 0
CLASSIFICATION_TYPE = U
NORAD_CAT_ID   = 19120
ELEMENT_SET_NO = 999
REV_AT_EPOCH   = 94019
BSTAR          = -.14852623E-4
MEAN_MOTION_DOT = -.8E-6
MEAN_MOTION_DDOT = 0

CCSDS_OMM_VERS = 2.0
CREATION_DATE  = 
ORIGINATOR     = 

OBJECT_NAME    = COSMOS 1953
OBJECT_ID      = 1988-050A
CENTER_NAME    = EARTH
REF_FRAME      = TEME
TIME_SYSTEM    = UTC
MEAN_ELEMENT_THEORY = SGP/SGP4

EPOCH          = 2025-11-01T09:49:41.348640
MEAN_MOTION    = 15.26271165
ECCENTRICITY   = .00108723
INCLINATION    = 82.5060
RA_OF_ASC_NODE = 287.0371
ARG_OF_PERICENTER = 206.1592
MEAN_ANOMALY   = 153.9099

EPHEMERIS_TYPE = 0
CLASSIFICATION_TYPE = U
NORAD_CAT_ID   = 19210
ELEMENT_SET_NO = 999
REV_AT_EPOCH   = 1820
BSTAR          = .24108182E-3
MEAN_MOTION_DOT = .629E-4
MEAN_MOTION_DDOT = 0

CCSDS_OMM_VERS = 2.0
CREATION_DATE  = 
ORIGINATOR     = 

OBJECT_NAME    = SL-8 R/B
OBJECT_ID      = 1988-053B
CENTER_NAME    = EARTH
REF_FRAME      = TEME
TIME_SYSTEM    = UTC
MEAN_ELEMENT_THEORY = SGP/SGP4

EPOCH          = 2025-11-01T10:57:24.521184
MEAN_MOTION    = 14.38821530
ECCENTRICITY   = .00205366
INCLINATION    = 74.0485
RA_OF_ASC_NODE = 348.8088
ARG_OF_PERICENTER = 204.8297
MEAN_ANOMALY   = 255.9130

EPHEMERIS_TYPE = 0
CLASSIFICATION_TYPE = U
NORAD_CAT_ID   = 19257
ELEMENT_SET_NO = 999
REV_AT_EPOCH   = 95815
BSTAR          = .12462547E-3
MEAN_MOTION_DOT = .358E-5
MEAN_MOTION_DDOT = 0

CCSDS_OMM_VERS = 2.0
CREATION_DATE  = 
ORIGINATOR     = 

OBJECT_NAME    = COSMOS 1975
OBJECT_ID      = 1988-093A
CENTER_NAME    = EARTH
REF_FRAME      = TEME
TIME_SYSTEM    = UTC
MEAN_ELEMENT_THEORY = SGP/SGP4

EPOCH          = 2025-11-01T08:07:56.609760
MEAN_MOTION    = 15.25481341
ECCENTRICITY   = .00092272
INCLINATION    = 82.5198
RA_OF_ASC_NODE = 246.2401
ARG_OF_PERICENTER = 263.8225
MEAN_ANOMALY   = 96.1962

EPHEMERIS_TYPE = 0
CLASSIFICATION_TYPE = U
NORAD_CAT_ID   = 19573
ELEMENT_SET_NO = 999
REV_AT_EPOCH   = 99981
BSTAR          = .45803777E-3
MEAN_MOTION_DOT = .11642E-3
MEAN_MOTION_DDOT = 0

CCSDS_OMM_VERS = 2.0
CREATION_DATE  = 
ORIGINATOR     = 

OBJECT_NAME    = SL-14 R/B
OBJECT_ID      = 1988-093B
CENTER_NAME    = EARTH
REF_FRAME      = TEME
TIME_SYSTEM    = UTC
MEAN_ELEMENT_THEORY = SGP/SGP4

EPOCH          = 2025-11-01T14:40:00.214176
MEAN_MOTION    = 14.85486909
ECCENTRICITY   = .00222791
INCLINATION    = 82.5311
RA_OF_ASC_NODE = 162.2629
ARG_OF_PERICENTER = 100.9967
MEAN_ANOMALY   = 276.8697

EPHEMERIS_TYPE = 0
CLASSIFICATION_TYPE = U
NORAD_CAT_ID   = 19574
ELEMENT_SET_NO = 999
REV_AT_EPOCH   = 98202
BSTAR          = .65072376E-4
MEAN_MOTION_DOT = .588E-5
MEAN_MOTION_DDOT = 0

CCSDS_OMM_VERS = 2.0
CREATION_DATE  = 
ORIGINATOR     = 

OBJECT_NAME    = SL-16 R/B
OBJECT_ID      = 1988-102B
CENTER_NAME    = EARTH
REF_FRAME      = TEME
TIME_SYSTEM    = UTC
MEAN_ELEMENT_THEORY = SGP/SGP4

EPOCH          = 2025-11-01T15:08:26.633184
MEAN_MOTION    = 14.16130480
ECCENTRICITY   = .00153518
INCLINATION    = 71.0005
RA_OF_ASC_NODE = 60.9366
ARG_OF_PERICENTER = 213.8945
MEAN_ANOMALY   = 146.1199

EPHEMERIS_TYPE = 0
CLASSIFICATION_TYPE = U
NORAD_CAT_ID   = 19650
ELEMENT_SET_NO = 999
REV_AT_EPOCH   = 90876
BSTAR          = .746495E-4
MEAN_MOTION_DOT = .1E-5
MEAN_MOTION_DDOT = 0

CCSDS_OMM_VERS = 2.0
CREATION_DATE  = 
ORIGINATOR     = 

OBJECT_NAME    = INTERCOSMOS 24
OBJECT_ID      = 1989-080A
CENTER_NAME    = EARTH
REF_FRAME      = TEME
TIME_SYSTEM    = UTC
MEAN_ELEMENT_THEORY = SGP/SGP4

EPOCH          = 2025-11-01T10:17:11.172192
MEAN_MOTION    = 12.59349892
ECCENTRICITY   = .11876577
INCLINATION    = 82.6094
RA_OF_ASC_NODE = 187.8147
ARG_OF_PERICENTER = 230.3744
MEAN_ANOMALY   = 118.6548

EPHEMERIS_TYPE = 0
CLASSIFICATION_TYPE = U
NORAD_CAT_ID   = 20261
ELEMENT_SET_NO = 999
REV_AT_EPOCH   = 65065
BSTAR          = .19759399E-3
MEAN_MOTION_DOT = .669E-5
MEAN_MOTION_DDOT = 0

CCSDS_OMM_VERS = 2.0
CREATION_DATE  = 
ORIGINATOR     = 

OBJECT_NAME    = SL-14 R/B
OBJECT_ID      = 1989-080C
CENTER_NAME    = EARTH
REF_FRAME      = TEME
TIME_SYSTEM    = UTC
MEAN_ELEMENT_THEORY = SGP/SGP4

EPOCH          = 2025-11-01T14:49:58.713024
MEAN_MOTION    = 12.50370885
ECCENTRICITY   = .12315115
INCLINATION    = 82.5912
RA_OF_ASC_NODE = 255.4103
ARG_OF_PERICENTER = 117.5137
MEAN_ANOMALY   = 255.6503

EPHEMERIS_TYPE = 0
CLASSIFICATION_TYPE = U
NORAD_CAT_ID   = 20262
ELEMENT_SET_NO = 999
REV_AT_EPOCH   = 64414
BSTAR          = .87252683E-4
MEAN_MOTION_DOT = .321E-5
MEAN_MOTION_DDOT = 0

